[{"OBJECT_NAME":"OBJECT L","OBJECT_ID":"2023-085L","EPOCH":"2026-03-09T23:02:21.999840","MEAN_MOTION":15.29079976,"ECCENTRICITY":0.0005428,"INCLINATION":97.486,"RA_OF_ASC_NODE":178.8598,"ARG_OF_PERICENTER":50.8528,"MEAN_ANOMALY":309.3193,"EPHEMERIS_TYPE":0,"CLASSIFICATION_TYPE":"U","NORAD_CAT_ID":57014,"ELEMENT_SET_NO":999,"REV_AT_EPOCH":15144,"BSTAR":0.00063462603,"MEAN_MOTION_DOT":0.00017871,"MEAN_MOTION_DDOT":0},{"OBJECT_NAME":"STARLINK-30261","OBJECT_ID":"2023-115C","EPOCH":"2026-03-09T04:46:46.456320","MEAN_MOTION":15.27571858,"ECCENTRICITY":0.00025291,"INCLINATION":43.0067,"RA_OF_ASC_NODE":4.5829,"ARG_OF_PERICENTER":262.2498,"MEAN_ANOMALY":97.8066,"EPHEMERIS_TYPE":0,"CLASSIFICATION_TYPE":"U","NORAD_CAT_ID":57523,"ELEMENT_SET_NO":999,"REV_AT_EPOCH":14227,"BSTAR":0.00024712616,"MEAN_MOTION_DOT":6.542e-5,"MEAN_MOTION_DDOT":0}]
